{
  "norad_id": 63138,
  "name": "STARLINK-11611 [DTC]",
  "history": [
    {
      "epoch": "2026-03-28T19:54:43.208064Z",
      "apogee_km": 357.9312242431297,
      "perigee_km": 354.3382209082656,
      "latitude_deg": -6.709155985419967e-06,
      "longitude_deg": 10.30546647197862,
      "height_km": 354.91953943869106,
      "semi_major_axis_km": 6734.271722575697,
      "eccentricity": 0.00026677,
      "inclination_deg": 42.9973,
      "raan_deg": 135.23,
      "arg_perigee_deg": 303.3679,
      "mean_anomaly_deg": 56.6933,
      "mean_motion_rev_day": 15.70966081
    },
    {
      "epoch": "2026-03-30T03:57:28.685376Z",
      "apogee_km": 357.68418727435983,
      "perigee_km": 355.29070174678054,
      "latitude_deg": 2.074090890980618e-06,
      "longitude_deg": -119.74779338449297,
      "height_km": 356.986652560736,
      "semi_major_axis_km": 6734.624444510569,
      "eccentricity": 0.0001777,
      "inclination_deg": 43.0004,
      "raan_deg": 127.1823,
      "arg_perigee_deg": 232.6036,
      "mean_anomaly_deg": 127.467,
      "mean_motion_rev_day": 15.70842665
    },
    {
      "epoch": "2026-03-30T13:06:50.983488Z",
      "apogee_km": 357.1410060329308,
      "perigee_km": 355.6963091532634,
      "latitude_deg": -9.416534878183102e-06,
      "longitude_deg": 100.23335448088996,
      "height_km": 356.2515687766437,
      "semi_major_axis_km": 6734.555657593097,
      "eccentricity": 0.00010726,
      "inclination_deg": 43.0001,
      "raan_deg": 124.8824,
      "arg_perigee_deg": 265.176,
      "mean_anomaly_deg": 94.8985,
      "mean_motion_rev_day": 15.70866732
    },
    {
      "epoch": "2026-03-30T19:13:05.716704Z",
      "apogee_km": 356.5315333032959,
      "perigee_km": 355.92153465438696,
      "latitude_deg": 1.5487278278930846e-05,
      "longitude_deg": 6.889106757119038,
      "height_km": 355.7211035149127,
      "semi_major_axis_km": 6734.363533978841,
      "eccentricity": 4.529e-05,
      "inclination_deg": 43.0001,
      "raan_deg": 123.3502,
      "arg_perigee_deg": 335.1741,
      "mean_anomaly_deg": 24.9105,
      "mean_motion_rev_day": 15.70933955
    },
    {
      "epoch": "2026-03-31T10:28:40.643328Z",
      "apogee_km": 357.8032172162257,
      "perigee_km": 355.0380078605176,
      "latitude_deg": -8.500220102934298e-06,
      "longitude_deg": 133.53306073546585,
      "height_km": 355.8874434428588,
      "semi_major_axis_km": 6734.557612538371,
      "eccentricity": 0.0002053,
      "inclination_deg": 43.0001,
      "raan_deg": 119.5164,
      "arg_perigee_deg": 282.7929,
      "mean_anomaly_deg": 77.2709,
      "mean_motion_rev_day": 15.70866048
    },
    {
      "epoch": "2026-04-01T18:31:26.220000Z",
      "apogee_km": 357.71171846906145,
      "perigee_km": 354.52237575234994,
      "latitude_deg": -1.608346391886705e-05,
      "longitude_deg": 3.4790694036711867,
      "height_km": 355.55721739625733,
      "semi_major_axis_km": 6734.254047110706,
      "eccentricity": 0.0002368,
      "inclination_deg": 43.0015,
      "raan_deg": 111.4684,
      "arg_perigee_deg": 282.0602,
      "mean_anomaly_deg": 78.0,
      "mean_motion_rev_day": 15.70972266
    },
    {
      "epoch": "2026-04-02T08:15:27.605664Z",
      "apogee_km": 357.76737102848256,
      "perigee_km": 354.63145993324906,
      "latitude_deg": 1.0331620668755364e-05,
      "longitude_deg": 153.45900072499978,
      "height_km": 355.96269083247324,
      "semi_major_axis_km": 6734.336415480865,
      "eccentricity": 0.00023283,
      "inclination_deg": 43.0014,
      "raan_deg": 108.0181,
      "arg_perigee_deg": 270.3667,
      "mean_anomaly_deg": 89.6934,
      "mean_motion_rev_day": 15.70943444
    },
    {
      "epoch": "2026-04-03T11:43:31.981440Z",
      "apogee_km": 357.6426313036809,
      "perigee_km": 355.14789117282726,
      "latitude_deg": -3.6043101952923894e-05,
      "longitude_deg": 93.41395346001521,
      "height_km": 356.7771028502396,
      "semi_major_axis_km": 6734.532261238253,
      "eccentricity": 0.00018522,
      "inclination_deg": 43.0007,
      "raan_deg": 101.1194,
      "arg_perigee_deg": 240.7639,
      "mean_anomaly_deg": 119.3043,
      "mean_motion_rev_day": 15.70874918
    }
  ]
}